STARLINK-30257          
1 57526U 23115F   26068.18887832 -.00000045  00000+0  78626-5 0  9997
2 57526  42.9962   4.5350 0000486 232.5488 127.5319 15.27583134142279
FLOCK 4G-7              
1 62624U 25009R   26068.79996108  .00011422  00000+0  43168-3 0  9991
2 62624  97.3984 150.8270 0001396 336.9783  23.1393 15.27141471 63725
